{
  "type": "FeatureCollection",
  "features": [
    {
      "type": "Feature",
      "properties": {
        "norad_id": 38212,
        "name": "COSMOS 2251 DEB",
        "group": "cosmos-2251-debris",
        "lat": 41.1381454285925,
        "lon": -147.00169065152863,
        "alt_km": 574.8490407848376,
        "timestamp": "2025-12-27T14:26:30.919533+00:00",
        "meta_object_name": "COSMOS 2251 DEB",
        "meta_object_id": "1993-036BTC",
        "meta_epoch": "2025-12-19T04:21:29.490912",
        "meta_mean_motion": 14.77722254,
        "meta_eccentricity": 0.0092064,
        "meta_inclination": 74.0528,
        "meta_ra_of_asc_node": 63.9673,
        "meta_arg_of_pericenter": 129.0689,
        "meta_mean_anomaly": 231.8724,
        "meta_ephemeris_type": 0,
        "meta_classification_type": "U",
        "meta_norad_cat_id": 38212,
        "meta_element_set_no": 999,
        "meta_rev_at_epoch": 81405,
        "meta_bstar": 0.00027193732,
        "meta_mean_motion_dot": 2.056e-05,
        "meta_mean_motion_ddot": 0,
        "tle_line1": "1 38212U 93036BTC 25353.18159133  .00002056  00000+0  27194-3 0  9994",
        "tle_line2": "2 38212  74.0528  63.9673 0092064 129.0689 231.8724 14.77722254814050"
      },
      "geometry": {
        "type": "Point",
        "coordinates": [
          -147.00169065152863,
          41.1381454285925
        ]
      }
    },
    {
      "type": "Feature",
      "properties": {
        "norad_id": 38220,
        "name": "COSMOS 2251 DEB",
        "group": "cosmos-2251-debris",
        "lat": 38.073430829935376,
        "lon": 51.34009994814109,
        "alt_km": 579.482260672331,
        "timestamp": "2025-12-27T14:26:30.919543+00:00",
        "meta_object_name": "COSMOS 2251 DEB",
        "meta_object_id": "1993-036BTL",
        "meta_epoch": "2025-12-25T02:47:20.409216",
        "meta_mean_motion": 14.93616578,
        "meta_eccentricity": 0.00060459,
        "meta_inclination": 74.0136,
        "meta_ra_of_asc_node": 43.3689,
        "meta_arg_of_pericenter": 13.8896,
        "meta_mean_anomaly": 346.2452,
        "meta_ephemeris_type": 0,
        "meta_classification_type": "U",
        "meta_norad_cat_id": 38220,
        "meta_element_set_no": 999,
        "meta_rev_at_epoch": 71555,
        "meta_bstar": 0.0029073609,
        "meta_mean_motion_dot": 0.00030813,
        "meta_mean_motion_ddot": 0,
        "tle_line1": "1 38220U 93036BTL 25359.11620844  .00030813  00000+0  29074-2 0  9994",
        "tle_line2": "2 38220  74.0136  43.3689 0006045  13.8896 346.2452 14.93616578715550"
      },
      "geometry": {
        "type": "Point",
        "coordinates": [
          51.34009994814109,
          38.073430829935376
        ]
      }
    },
    {
      "type": "Feature",
      "properties": {
        "norad_id": 38479,
        "name": "COSMOS 2251 DEB",
        "group": "cosmos-2251-debris",
        "lat": 63.875798638893,
        "lon": -58.94859759980242,
        "alt_km": 809.7703648400256,
        "timestamp": "2025-12-27T14:26:30.919553+00:00",
        "meta_object_name": "COSMOS 2251 DEB",
        "meta_object_id": "1993-036BTP",
        "meta_epoch": "2025-12-27T04:45:05.285376",
        "meta_mean_motion": 14.38480276,
        "meta_eccentricity": 0.00839667,
        "meta_inclination": 74.007,
        "meta_ra_of_asc_node": 157.5859,
        "meta_arg_of_pericenter": 263.7658,
        "meta_mean_anomaly": 277.4842,
        "meta_ephemeris_type": 0,
        "meta_classification_type": "U",
        "meta_norad_cat_id": 38479,
        "meta_element_set_no": 999,
        "meta_rev_at_epoch": 64895,
        "meta_bstar": 0.0028753615,
        "meta_mean_motion_dot": 9.134e-05,
        "meta_mean_motion_ddot": 0,
        "tle_line1": "1 38479U 93036BTP 25361.19797784  .00009134  00000+0  28754-2 0  9995",
        "tle_line2": "2 38479  74.0070 157.5859 0083966 263.7658 277.4842 14.38480276648959"
      },
      "geometry": {
        "type": "Point",
        "coordinates": [
          -58.94859759980242,
          63.875798638893
        ]
      }
    },
    {
      "type": "Feature",
      "properties": {
        "norad_id": 38481,
        "name": "COSMOS 2251 DEB",
        "group": "cosmos-2251-debris",
        "lat": -25.76443706497835,
        "lon": 169.8633945326568,
        "alt_km": 861.9985969891131,
        "timestamp": "2025-12-27T14:26:30.919563+00:00",
        "meta_object_name": "COSMOS 2251 DEB",
        "meta_object_id": "1993-036BTR",
        "meta_epoch": "2025-12-27T04:49:22.436832",
        "meta_mean_motion": 13.9490461,
        "meta_eccentricity": 0.02348087,
        "meta_inclination": 73.9335,
        "meta_ra_of_asc_node": 342.5605,
        "meta_arg_of_pericenter": 280.1991,
        "meta_mean_anomaly": 77.2735,
        "meta_ephemeris_type": 0,
        "meta_classification_type": "U",
        "meta_norad_cat_id": 38481,
        "meta_element_set_no": 999,
        "meta_rev_at_epoch": 59262,
        "meta_bstar": 0.0020132501,
        "meta_mean_motion_dot": 3.379e-05,
        "meta_mean_motion_ddot": 0,
        "tle_line1": "1 38481U 93036BTR 25361.20095413  .00003379  00000+0  20133-2 0  9998",
        "tle_line2": "2 38481  73.9335 342.5605 0234808 280.1991  77.2735 13.94904610592628"
      },
      "geometry": {
        "type": "Point",
        "coordinates": [
          169.8633945326568,
          -25.76443706497835
        ]
      }
    },
    {
      "type": "Feature",
      "properties": {
        "norad_id": 38483,
        "name": "COSMOS 2251 DEB",
        "group": "cosmos-2251-debris",
        "lat": -33.96331709202228,
        "lon": -25.80550614492495,
        "alt_km": 841.3670821192254,
        "timestamp": "2025-12-27T14:26:30.919573+00:00",
        "meta_object_name": "COSMOS 2251 DEB",
        "meta_object_id": "1993-036BTT",
        "meta_epoch": "2025-12-26T16:45:49.044384",
        "meta_mean_motion": 14.28835727,
        "meta_eccentricity": 0.010984,
        "meta_inclination": 74.2617,
        "meta_ra_of_asc_node": 346.76,
        "meta_arg_of_pericenter": 87.4752,
        "meta_mean_anomaly": 273.8967,
        "meta_ephemeris_type": 0,
        "meta_classification_type": "U",
        "meta_norad_cat_id": 38483,
        "meta_element_set_no": 999,
        "meta_rev_at_epoch": 63677,
        "meta_bstar": 0.00084663687,
        "meta_mean_motion_dot": 2.255e-05,
        "meta_mean_motion_ddot": 0,
        "tle_line1": "1 38483U 93036BTT 25360.69848431  .00002255  00000+0  84664-3 0  9990",
        "tle_line2": "2 38483  74.2617 346.7600 0109840  87.4752 273.8967 14.28835727636774"
      },
      "geometry": {
        "type": "Point",
        "coordinates": [
          -25.80550614492495,
          -33.96331709202228
        ]
      }
    },
    {
      "type": "Feature",
      "properties": {
        "norad_id": 38486,
        "name": "COSMOS 2251 DEB",
        "group": "cosmos-2251-debris",
        "lat": 6.619514302817885,
        "lon": -6.198246396553265,
        "alt_km": 668.9713405808325,
        "timestamp": "2025-12-27T14:26:30.919584+00:00",
        "meta_object_name": "COSMOS 2251 DEB",
        "meta_object_id": "1993-036BTW",
        "meta_epoch": "2025-12-27T06:19:21.485568",
        "meta_mean_motion": 14.73649292,
        "meta_eccentricity": 0.00309237,
        "meta_inclination": 73.9408,
        "meta_ra_of_asc_node": 176.3807,
        "meta_arg_of_pericenter": 318.9182,
        "meta_mean_anomaly": 220.2671,
        "meta_ephemeris_type": 0,
        "meta_classification_type": "U",
        "meta_norad_cat_id": 38486,
        "meta_element_set_no": 999,
        "meta_rev_at_epoch": 75648,
        "meta_bstar": 0.0026536467,
        "meta_mean_motion_dot": 0.00017447,
        "meta_mean_motion_ddot": 0,
        "tle_line1": "1 38486U 93036BTW 25361.26344312  .00017447  00000+0  26536-2 0  9998",
        "tle_line2": "2 38486  73.9408 176.3807 0030923 318.9182 220.2671 14.73649292756480"
      },
      "geometry": {
        "type": "Point",
        "coordinates": [
          -6.198246396553265,
          6.619514302817885
        ]
      }
    },
    {
      "type": "Feature",
      "properties": {
        "norad_id": 38487,
        "name": "COSMOS 2251 DEB",
        "group": "cosmos-2251-debris",
        "lat": 15.130986149610312,
        "lon": 178.19936002751479,
        "alt_km": 497.1763582117992,
        "timestamp": "2025-12-27T14:26:30.919594+00:00",
        "meta_object_name": "COSMOS 2251 DEB",
        "meta_object_id": "1993-036BTX",
        "meta_epoch": "2025-12-21T18:32:44.643552",
        "meta_mean_motion": 15.1793295,
        "meta_eccentricity": 0.00206459,
        "meta_inclination": 73.9735,
        "meta_ra_of_asc_node": 14.8819,
        "meta_arg_of_pericenter": 185.3276,
        "meta_mean_anomaly": 174.7704,
        "meta_ephemeris_type": 0,
        "meta_classification_type": "U",
        "meta_norad_cat_id": 38487,
        "meta_element_set_no": 999,
        "meta_rev_at_epoch": 66937,
        "meta_bstar": 0.0019265154,
        "meta_mean_motion_dot": 0.00039496,
        "meta_mean_motion_ddot": 0,
        "tle_line1": "1 38487U 93036BTX 25355.77273893  .00039496  00000+0  19265-2 0  9992",
        "tle_line2": "2 38487  73.9735  14.8819 0020645 185.3276 174.7704 15.17932950669379"
      },
      "geometry": {
        "type": "Point",
        "coordinates": [
          178.19936002751479,
          15.130986149610312
        ]
      }
    }
  ]
}